ONEWEB-0156             
1 48052U 21025L   25129.75779419  .00000223  00000+0  57443-3 0  9999
2 48052  87.8997  40.3806 0002013  81.8408 278.2949 13.13469285200617
ONEWEB-0161             
1 48053U 21025M   25129.80858011  .00000369  00000+0  97474-3 0  9991
2 48053  87.8996  40.3870 0001989  84.6057 275.5299 13.13470880200554
ONEWEB-0158             
1 48054U 21025N   25129.76795210 -.00000163  00000+0 -47998-3 0  9998
2 48054  87.8994  40.3756 0002037  77.1988 282.9368 13.13469640200675
ONEWEB-0157             
1 48055U 21025P   25129.79335713  .00000044  00000+0  84836-4 0  9999
2 48055  87.8992  40.3824 0002094  92.5119 267.6250 13.13470667200615
ONEWEB-0162             
1 48056U 21025Q   25129.76951233 -.00000185  00000+0 -54193-3 0  9998
2 48056  87.8993  40.3849 0001954  79.7595 280.3754 13.13468694200587
ONEWEB-0155             
1 48057U 21025R   25129.77641592 -.00000335  00000+0 -95265-3 0  9996
2 48057  87.8995  40.3922 0001749  84.8717 275.2612 13.13469816200726
ONEWEB-0149             
1 48058U 21025S   25129.79843286  .00000125  00000+0  30626-3 0  9998
2 48058  87.8992  40.3830 0002121  77.4602 282.6764 13.13470230200539
ONEWEB-0148             
1 48059U 21025T   25129.83735950  .00000063  00000+0  13856-3 0  9999
2 48059  87.8998  40.3962 0002569  82.4383 277.7038 13.13469987200660
ONEWEB-0160             
1 48060U 21025U   25129.77811297 -.00000279  00000+0 -79875-3 0  9997
2 48060  87.8998  40.4052 0001744  52.8057 307.3231 13.13469382200604
ONEWEB-0163             
1 48061U 21025V   25129.76287319 -.00000110  00000+0 -33537-3 0  9998
2 48061  87.8996  40.3910 0001964  87.4846 272.6508 13.13469712200720
ONEWEB-0159             
1 48062U 21025W   25129.75441986  .00000113  00000+0  27344-3 0  9990
2 48062  87.8995  40.3743 0002057  84.7270 275.4094 13.13468974200640
ONEWEB-0164             
1 48063U 21025X   25129.81197116  .00000357  00000+0  94301-3 0  9998
2 48063  87.8993  40.3733 0001864  78.8745 281.2594 13.13469372200636
ONEWEB-0167             
1 48064U 21025Y   25129.76371093 -.00000018  00000+0 -84943-4 0  9999
2 48064  87.9005  40.4072 0001517 104.0772 256.0526 13.13467412200612
ONEWEB-0166             
1 48065U 21025Z   25129.78657248 -.00000087  00000+0 -27407-3 0  9998
2 48065  87.8989  40.3652 0002094  80.8527 279.2839 13.13469707200697
ONEWEB-0151             
1 48066U 21025AA  25129.78826501 -.00000163  00000+0 -48196-3 0  9992
2 48066  87.8991  40.3861 0001772  81.2980 278.8350 13.13469762200631
ONEWEB-0170             
1 48067U 21025AB  25129.79673164  .00000057  00000+0  11995-3 0  9996
2 48067  87.8993  40.3896 0001445  71.5269 288.6017 13.13469485200597
ONEWEB-0168             
1 48068U 21025AC  25129.78149293 -.00000247  00000+0 -71196-3 0  9999
2 48068  87.8999  40.3717 0001886  80.9976 279.1367 13.13469970200608
ONEWEB-0173             
1 48069U 21025AD  25129.77301739 -.00000244  00000+0 -70438-3 0  9999
2 48069  87.8997  40.3818 0001870  94.3318 265.8025 13.13467114200848
ONEWEB-0171             
1 48070U 21025AE  25129.81029018  .00000336  00000+0  88378-3 0  9995
2 48070  87.8998  40.4119 0001780  81.3062 278.8269 13.13470741200662
ONEWEB-0172             
1 48071U 21025AF  25129.78995700 -.00000092  00000+0 -28767-3 0  9999
2 48071  87.8995  40.3823 0001777  84.1781 275.9551 13.13470012201558
ONEWEB-0174             
1 48072U 21025AG  25129.77133586 -.00000253  00000+0 -72678-3 0  9994
2 48072  87.8999  40.3997 0002005  81.3194 278.8162 13.13469551200877
ONEWEB-0175             
1 48073U 21025AH  25129.80182723  .00000186  00000+0  47328-3 0  9993
2 48073  87.8988  40.3632 0001539  79.8483 280.2820 13.13470598200530
ONEWEB-0177             
1 48074U 21025AJ  25129.81366013  .00000394  00000+0  10431-2 0  9996
2 48074  87.8993  40.3738 0002006  87.3115 272.8243 13.13468873200720
ONEWEB-0178             
1 48075U 21025AK  25129.75624265  .00000041  00000+0  77281-4 0  9993
2 48075  87.9002  40.4259 0001680  87.8546 272.2776 13.13470159200761
ONEWEB-0108             
1 48076U 21025AL  25129.79164117 -.00001314  00000+0 -36339-2 0  9996
2 48076  87.8985  40.3734 0002009  70.9280 289.2066 13.13475703200694
ONEWEB-0169             
1 48077U 21025AM  25129.82381731  .00000307  00000+0  80552-3 0  9990
2 48077  87.8995  40.3860 0002004  74.2669 285.8681 13.13470048199351
ONEWEB-0176             
1 48210U 21031A   25129.22190173 -.00000145  00000+0 -42422-3 0  9994
2 48210  87.9076  10.0574 0001789  81.2324 278.9008 13.14502682195243
ONEWEB-0184             
1 48211U 21031B   25129.72776950  .00000284  00000+0  73111-3 0  9994
2 48211  87.9070   9.9290 0001043 104.7732 255.3513 13.14504134195285
ONEWEB-0179             
1 48212U 21031C   25129.69844895 -.00000065  00000+0 -20852-3 0  9998
2 48212  87.9073   9.9500 0001908  84.0717 276.0631 13.14504369195322
ONEWEB-0180             
1 48213U 21031D   25129.73094905  .00000231  00000+0  58959-3 0  9995
2 48213  87.9073   9.9327 0001700  89.2363 270.8962 13.14501969195214
ONEWEB-0218             
1 48214U 21031E   25129.22031954 -.00000032  00000+0 -12133-3 0  9990
2 48214  87.9075  10.0349 0001271 113.7079 246.4184 13.14501993195306
ONEWEB-0209             
1 48215U 21031F   25129.74204341  .00000159  00000+0  39323-3 0  9998
2 48215  87.9076   9.9733 0001888  84.7045 275.4300 13.14502592195371
ONEWEB-0198             
1 48216U 21031G   25129.72619234  .00000241  00000+0  61680-3 0  9991
2 48216  87.9072   9.9785 0001700  95.5286 264.6037 13.14502209195489
ONEWEB-0189             
1 48217U 21031H   25129.73887303  .00000222  00000+0  56420-3 0  9992
2 48217  87.9074   9.9501 0001724  95.1892 264.9435 13.14502552195221
ONEWEB-0196             
1 48218U 21031J   25129.71666927 -.00000078  00000+0 -24582-3 0  9993
2 48218  87.9076   9.9646 0001748  85.6760 274.4569 13.14502815195224
ONEWEB-0183             
1 48219U 21031K   25129.69128845 -.00000162  00000+0 -47259-3 0  9993
2 48219  87.9075   9.9831 0001975  81.0901 279.0452 13.14504120195312
ONEWEB-0185             
1 48220U 21031L   25129.71745919  .00000125  00000+0  30350-3 0  9996
2 48220  87.9070   9.9464 0002001  87.3880 272.7479 13.14503045195243
ONEWEB-0187             
1 48221U 21031M   25129.69750322 -.00000158  00000+0 -46103-3 0  9999
2 48221  87.9074   9.9931 0002016  90.6887 269.4474 13.14501575195252
ONEWEB-0192             
1 48222U 21031N   25129.74363288  .00000068  00000+0  14883-3 0  9995
2 48222  87.9075   9.9769 0001714  83.3193 276.8132 13.14501055195173
ONEWEB-0219             
1 48223U 21031P   25129.72301555  .00000206  00000+0  52031-3 0  9994
2 48223  87.9075   9.9542 0001905  86.1625 273.9722 13.14501814195374
ONEWEB-0202             
1 48224U 21031Q   25129.70399028 -.00000123  00000+0 -36525-3 0  9995
2 48224  87.9072   9.9731 0001561 108.4276 251.7023 13.14502550195354
ONEWEB-0204             
1 48225U 21031R   25129.73808065  .00000224  00000+0  57049-3 0  9999
2 48225  87.9052   9.9753 0002055  76.7162 283.4196 13.14501507195250
ONEWEB-0205             
1 48226U 21031S   25129.94185090  .00000029  00000+0  43018-4 0  9994
2 48226  87.9071   9.9094 0001975  87.0814 273.0542 13.14501936195299
ONEWEB-0206             
1 48227U 21031T   25129.68653012 -.00000172  00000+0 -49757-3 0  9996
2 48227  87.9072   9.9412 0001873  83.0254 277.1089 13.14504210195217
ONEWEB-0182             
1 48228U 21031U   25129.68178462 -.00000128  00000+0 -37956-3 0  9997
2 48228  87.9076   9.9833 0001888  77.2180 282.9161 13.14501135195429
ONEWEB-0186             
1 48229U 21031V   25129.69288263 -.00000150  00000+0 -43849-3 0  9993
2 48229  87.9074   9.9428 0001859  85.1527 274.9815 13.14502129195374
ONEWEB-0181             
1 48230U 21031W   25129.74680212  .00000071  00000+0  15758-3 0  9999
2 48230  87.9077  10.0037 0001794  87.3646 272.7689 13.14501995195243
ONEWEB-0188             
1 48231U 21031X   25129.70874522 -.00000024  00000+0 -98256-4 0  9990
2 48231  87.9072  10.0031 0001854  82.7167 277.4174 13.14501829195132
ONEWEB-0220             
1 48232U 21031Y   25129.59615015  .00000051  00000+0  10401-3 0  9991
2 48232  87.9069   9.9704 0002051  86.6040 273.5324 13.14501373195381
ONEWEB-0165             
1 48233U 21031Z   25129.70081968 -.00000153  00000+0 -44774-3 0  9994
2 48233  87.9073   9.9882 0001887  88.0234 272.1112 13.14502374195350
ONEWEB-0199             
1 48234U 21031AA  25129.68494957 -.00000101  00000+0 -30774-3 0  9996
2 48234  87.9074   9.9560 0001763  77.8302 282.3025 13.14502922195254
ONEWEB-0203             
1 48235U 21031AB  25128.68591961 -.00000122  00000+0 -36244-3 0  9990
2 48235  87.9076  10.1569 0001533  82.5873 277.5431 13.14504782195131
ONEWEB-0197             
1 48236U 21031AC  25129.65085092  .00000234  00000+0  59626-3 0  9993
2 48236  87.9063   9.9744 0002083  78.5865 281.5498 13.14504768195172
ONEWEB-0194             
1 48237U 21031AD  25129.70557356 -.00000067  00000+0 -21467-3 0  9995
2 48237  87.9073   9.9619 0001617  76.0148 284.1161 13.14501784195355
ONEWEB-0193             
1 48238U 21031AE  25129.72143359  .00000239  00000+0  61027-3 0  9997
2 48238  87.9073   9.9664 0001675  85.0022 275.1299 13.14502809195307
ONEWEB-0191             
1 48239U 21031AF  25129.73253173  .00000244  00000+0  62323-3 0  9991
2 48239  87.9072   9.9380 0001513  81.4006 278.7295 13.14501586195165
ONEWEB-0195             
1 48240U 21031AG  25129.70953818  .00000063  00000+0  13519-3 0  9995
2 48240  87.9069   9.9405 0001754  95.2444 264.8885 13.14505349195147
ONEWEB-0201             
1 48241U 21031AH  25129.69777423 -.00000118  00000+0 -35404-3 0  9990
2 48241  87.9074   9.9878 0002040  86.2846 273.8517 13.14503017195370
ONEWEB-0207             
1 48242U 21031AJ  25129.22110950 -.00000067  00000+0 -21432-3 0  9995
2 48242  87.9073  10.0443 0002063  82.7146 277.4218 13.14502619195229
